#aV2020  5 12  0  0  0.00000000     288 DD+AD WGS84 FIT  NGA
## 2105 172800.00000000   300.00000000 58981 0.0000000000000
+   32     1  2  3  4  5  6  7  8  9 10 11 12 13 14 15 16 17
+         18 19 20 21 22 23 24 25 26 27 28 29 30 31 32  0  0
+          0  0  0  0  0  0  0  0  0  0  0  0  0  0  0  0  0
+          0  0  0  0  0  0  0  0  0  0  0  0  0  0  0  0  0
+          0  0  0  0  0  0  0  0  0  0  0  0  0  0  0  0  0
++         2  2  2  2  2  2  2  2  2  2  2  2  2  2  2  2  2
++         2  2  2  2  2  2  2  2  2  2  2  2  2  2  2  0  0
++         0  0  0  0  0  0  0  0  0  0  0  0  0  0  0  0  0
++         0  0  0  0  0  0  0  0  0  0  0  0  0  0  0  0  0
++         0  0  0  0  0  0  0  0  0  0  0  0  0  0  0  0  0
%c cc cc ccc ccc cccc cccc cccc cccc ccccc ccccc ccccc ccccc
%c cc cc ccc ccc cccc cccc cccc cccc ccccc ccccc ccccc ccccc
%f  0.0000000  0.000000000  0.00000000000  0.000000000000000
%f  0.0000000  0.000000000  0.00000000000  0.000000000000000
%i    0    0    0    0      0      0      0      0         0
%i    0    0    0    0      0      0      0      0         0
/*      NGA, ST. LOUIS,MO.                                  
/*   EPHEMERIS COMPUTED FROM 2 DAYS OF DATA                 
/*   EPOCHA v5 SMOOTHER                                     
/*   G1762 IERS2010 SATAF SATAPC                            
*  2020  5 12 19 35  0.00000000
P  1  15295.408419   1017.869984  21512.734308   -378.594901                    
V  1   7368.208638  26738.513391  -6111.149924     -0.068657                    
P  2 -13717.470547 -21140.181744  -7837.801122   -454.781533                    
V  2  -1170.573901 -11096.571010  29528.139040     -0.062153                    
P  3  21169.895418  -9225.301423  12968.921922   -173.619868                    
V  3  -9813.801300  13569.096218  25657.788362     -0.120338                    
P  4  24312.290524  -1048.052369 -10667.499969    -88.454230                    
V  4  12412.532602   5980.267910  27639.100749     -0.050055                    
P  5 -11983.880915  -9792.797074 -21723.522406    -12.544441                    
V  5  18188.448147 -20346.776925   -671.309374     -0.007178                    
P  6  -6740.214758 -25637.362977   1222.296629   -270.301257                    
V  6   2577.920759    785.568426  32153.130617     -0.069017                    
P  7   7982.232824 -17686.516220 -17609.476555   -279.593275                    
V  7   8333.376321  21726.082575 -18221.066848     -0.086534                    
P  8  25946.701471   6275.357062   -614.103243    -33.756195                    
V  8  -1280.532850   2090.540214 -31767.075903     -0.013654                    
P  9  16516.238000  -9730.929073 -18440.800940   -215.997289                    
V  9  22416.181926   6677.412069  16578.520724     -0.073335                    
P 10  -8186.088761  21651.379083  12898.745975   -338.913522                    
V 10 -12886.716457  10272.494482 -25825.834354     -0.116289                    
P 11  21269.873224   7966.932526  13027.575129   -279.206521                    
V 11   9312.910191  15377.867279 -24033.096759      0.107323                    
P 12 -21422.813955   7193.350001  13589.128933    118.700794                    
V 12  11731.121343 -13373.848924  25292.041305     -0.043704                    
P 13 -21915.269603 -13459.114235  -6941.476091      9.456624                    
V 13   8909.320982    854.218102 -30209.162998      0.030410                    
P 14  10512.782735  16793.376688  18125.357731    -13.440988                    
V 14 -21581.607656  -5603.488369  17873.200895      0.025979                    
P 15 -26489.693031  -3849.426793   -438.569653   -231.671637                    
V 15    650.064565  -3462.125985 -30762.617317      0.026063                    
P 16  12241.879040   8982.902481 -22044.838575   -157.394901                    
V 16 -20511.986611  18128.555585  -3607.741116     -0.045179                    
P 17   -406.029545 -15435.125923  22038.322961    263.662002                    
V 17  25842.319591   7500.827404   5797.544379      0.060872                    
P 18  -8473.519738  17330.774507 -18259.095340    187.511528                    
V 18  -7458.687788 -21981.169500 -17436.185375      0.122280                    
P 19  -9042.357592 -16352.329921  18582.436518   -159.692851                    
V 19  23185.996840   6913.227521  17073.252091      0.051056                    
P 20 -14801.131101  21874.953841   1151.261135    527.703972                    
V 20  -4050.413501   -997.667231 -31236.679335     -0.000491                    
P 21  -5344.887882  19540.644388 -16584.549704     -2.268696                    
V 21  -9609.652515 -20342.668114 -19703.343402      0.049892                    
P 22  18766.875985   -862.835874  18942.727896   -782.510394                    
V 22 -13446.264201  19663.337867  14520.958273      0.012052                    
P 23  16639.700577  -9795.769377 -18047.130093   -114.742119                    
V 23  22689.521114   6612.541950  16581.927430      0.030843                    
P 24 -16750.261900  -2290.264527  20362.588330    -12.940720                    
V 24  -8108.403453 -25045.454047  -9032.669337     -0.004821                    
P 25 -20307.079066  15944.922650   5350.119253      3.545692                    
V 25   2872.058148  -7136.319865  31056.368505      0.030260                    
P 26   2829.133117  17860.789270 -19414.268571    205.151959                    
V 26 -17541.279184  17450.640855  13742.671143      0.071970                    
P 27  21030.947253  12552.666273 -10830.648575   -291.904085                    
V 27 -13426.463489  -1484.965302 -27828.676024     -0.102047                    
P 28   8555.392700 -20776.586126  14858.490703    717.979724                    
V 28  14326.569377 -10604.897760 -23890.238129     -0.032452                    
P 29 -19493.979130   5762.525357 -17149.112521   -102.795515                    
V 29 -20245.757021  -7710.363665  20451.992760     -0.088542                    
P 30    673.492046 -24726.416748  -9342.159911   -218.652144                    
V 30   6237.829848  10805.575819 -28244.497732     -0.082367                    
P 31   7113.747119  25324.307283   -508.994007    -41.938871                    
V 31  -3036.168753   1436.996053  31986.613176     -0.024954                    
P 32   2154.330666  15902.768759  21267.689358    279.122297                    
V 32 -26226.985966  -5559.306016   6695.136029      0.077195                    
EOF
